Model Marker Errors from IK
version=1
nRows=874
nColumns=4
inDegrees=no
endheader
time	total_squared_error	marker_error_RMS	marker_error_max
     -0.00166667	      0.17398788	      0.06514297	      0.19673689
      0.00666667	      0.17476744	      0.06528875	      0.19702013
      0.01500000	      0.17556066	      0.06543674	      0.19729469
      0.02333333	      0.17636921	      0.06558726	      0.19754867
      0.03166667	      0.17718864	      0.06573944	      0.19779160
      0.04000000	      0.17802872	      0.06589510	      0.19803042
      0.04833333	      0.17887814	      0.06605211	      0.19824607
      0.05666667	      0.17973768	      0.06621062	      0.19845884
      0.06500000	      0.18061483	      0.06637198	      0.19865381
      0.07333333	      0.18150818	      0.06653592	      0.19885581
      0.08166667	      0.18241739	      0.06670236	      0.19900846
      0.09000000	      0.18334210	      0.06687121	      0.19916471
      0.09833333	      0.18428130	      0.06704227	      0.19933852
      0.10666667	      0.18523613	      0.06721573	      0.19946447
      0.11500000	      0.18619833	      0.06739008	      0.19959878
      0.12333333	      0.18716339	      0.06756449	      0.20021742
      0.13166667	      0.18812631	      0.06773807	      0.20129486
      0.14000000	      0.18907748	      0.06790910	      0.20235414
      0.14833333	      0.19000903	      0.06807618	      0.20337490
      0.15666667	      0.19092222	      0.06823957	      0.20439081
      0.16500000	      0.19179809	      0.06839592	      0.20536807
      0.17333333	      0.19264548	      0.06854685	      0.20634208
      0.18166667	      0.19343816	      0.06868773	      0.20722051
      0.19000000	      0.19418856	      0.06882083	      0.20810912
      0.19833333	      0.19488828	      0.06894471	      0.20893242
      0.20666667	      0.19552838	      0.06905784	      0.20967562
      0.21500000	      0.19616111	      0.06916948	      0.21037940
      0.22333333	      0.17792060	      0.06587509	      0.20479117
      0.23166667	      0.17784665	      0.06586139	      0.20518474
      0.24000000	      0.17773359	      0.06584046	      0.20553267
      0.24833333	      0.17758394	      0.06581273	      0.20583932
      0.25666667	      0.17739689	      0.06577806	      0.20608938
      0.26500000	      0.17714728	      0.06573177	      0.20626161
      0.27333333	      0.17683288	      0.06567341	      0.20636062
      0.28166667	      0.17646662	      0.06560536	      0.20642112
      0.29000000	      0.17602617	      0.06552344	      0.20641875
      0.29833333	      0.17550855	      0.06542703	      0.20635648
      0.30666667	      0.17493824	      0.06532064	      0.20628348
      0.31500000	      0.17425847	      0.06519361	      0.20610707
      0.32333333	      0.17350184	      0.06505192	      0.20587306
      0.33166667	      0.17268058	      0.06489778	      0.20564516
      0.34000000	      0.17178302	      0.06472889	      0.20537181
      0.34833333	      0.17082084	      0.06454736	      0.20505892
      0.35666667	      0.16983858	      0.06436151	      0.20472266
      0.36500000	      0.16878454	      0.06416148	      0.20435445
      0.37333333	      0.16769582	      0.06395422	      0.20396365
      0.38166667	      0.16657017	      0.06373921	      0.20356546
      0.39000000	      0.16541580	      0.06351796	      0.20312919
      0.39833333	      0.16425133	      0.06329400	      0.20270658
      0.40666667	      0.16305941	      0.06306393	      0.20224662
      0.41500000	      0.16186058	      0.06283167	      0.20177797
      0.42333333	      0.16065467	      0.06259718	      0.20130001
      0.43166667	      0.15946095	      0.06236418	      0.20084767
      0.44000000	      0.15825922	      0.06212874	      0.20036309
      0.44833333	      0.15706108	      0.06189312	      0.19985898
      0.45666667	      0.15588366	      0.06166069	      0.19938766
      0.46500000	      0.15470390	      0.06142692	      0.19890020
      0.47333333	      0.15355244	      0.06119789	      0.19841322
      0.48166667	      0.15241805	      0.06097142	      0.19791814
      0.49000000	      0.15132467	      0.06075233	      0.19747027
      0.49833333	      0.15025162	      0.06053655	      0.19698695
      0.50666667	      0.14918353	      0.06032100	      0.19646231
      0.51500000	      0.14817733	      0.06011723	      0.19596496
      0.52333333	      0.14720722	      0.05992011	      0.19546138
      0.53166667	      0.14626960	      0.05972898	      0.19490899
      0.54000000	      0.14536520	      0.05954404	      0.19438920
      0.54833333	      0.14449873	      0.05936631	      0.19382369
      0.55666667	      0.14367151	      0.05919614	      0.19322318
      0.56500000	      0.14289572	      0.05903610	      0.19263040
      0.57333333	      0.14217044	      0.05888609	      0.19203651
      0.58166667	      0.14149065	      0.05874514	      0.19141532
      0.59000000	      0.14085959	      0.05861399	      0.19078509
      0.59833333	      0.14028310	      0.05849392	      0.19015100
      0.60666667	      0.13976105	      0.05838498	      0.18951331
      0.61500000	      0.13929870	      0.05828833	      0.18887447
      0.62333333	      0.13889955	      0.05820476	      0.18823850
      0.63166667	      0.13856520	      0.05813466	      0.18761457
      0.64000000	      0.13829860	      0.05807871	      0.18700662
      0.64833333	      0.13810433	      0.05803790	      0.18643564
      0.65666667	      0.13798056	      0.05801189	      0.18589126
      0.66500000	      0.13792378	      0.05799995	      0.18538630
      0.67333333	      0.13793477	      0.05800227	      0.18492485
      0.68166667	      0.13800903	      0.05801788	      0.18452420
      0.69000000	      0.13814024	      0.05804545	      0.18417203
      0.69833333	      0.13832159	      0.05808354	      0.18389074
      0.70666667	      0.13854730	      0.05813091	      0.18364630
      0.71500000	      0.13882387	      0.05818890	      0.18349683
      0.72333333	      0.13913174	      0.05825339	      0.18339229
      0.73166667	      0.13947027	      0.05832421	      0.18333926
      0.74000000	      0.13984229	      0.05840195	      0.18335163
      0.74833333	      0.14023100	      0.05848306	      0.18340787
      0.75666667	      0.14062468	      0.05856509	      0.18349757
      0.76500000	      0.14103344	      0.05865015	      0.18362338
      0.77333333	      0.14143917	      0.05873445	      0.18380238
      0.78166667	      0.14183189	      0.05881594	      0.18400046
      0.79000000	      0.14220211	      0.05889265	      0.18419186
      0.79833333	      0.14255087	      0.05896482	      0.18438535
      0.80666667	      0.14286795	      0.05903037	      0.18458858
      0.81500000	      0.14315451	      0.05908954	      0.18480692
      0.82333333	      0.14339307	      0.05913875	      0.18494862
      0.83166667	      0.14359425	      0.05918022	      0.18510787
      0.84000000	      0.14375030	      0.05921237	      0.18522917
      0.84833333	      0.14386015	      0.05923499	      0.18532503
      0.85666667	      0.14391739	      0.05924677	      0.18535543
      0.86500000	      0.14392933	      0.05924923	      0.18535463
      0.87333333	      0.14390036	      0.05924327	      0.18531346
      0.88166667	      0.14379488	      0.05922155	      0.18522906
      0.89000000	      0.14364783	      0.05919126	      0.18509039
      0.89833333	      0.14344304	      0.05914905	      0.18488644
      0.90666667	      0.14318467	      0.05909576	      0.18465142
      0.91500000	      0.14287162	      0.05903112	      0.18434862
      0.92333333	      0.14250684	      0.05895572	      0.18399801
      0.93166667	      0.14209096	      0.05886963	      0.18359198
      0.94000000	      0.14162956	      0.05877397	      0.18312421
      0.94833333	      0.14112358	      0.05866889	      0.18260861
      0.95666667	      0.14059263	      0.05855842	      0.18201740
      0.96500000	      0.14001780	      0.05843859	      0.18138558
      0.97333333	      0.13942284	      0.05831429	      0.18069741
      0.98166667	      0.13880832	      0.05818564	      0.17996966
      0.99000000	      0.13817029	      0.05805176	      0.17917687
      0.99833333	      0.13751898	      0.05791478	      0.17833494
      1.00666670	      0.13687473	      0.05777896	      0.17744953
      1.01500000	      0.13620682	      0.05763781	      0.17651335
      1.02333330	      0.13554225	      0.05749703	      0.17554589
      1.03166670	      0.13488155	      0.05735673	      0.17454486
      1.04000000	      0.13421804	      0.05721548	      0.17352097
      1.04833330	      0.13356591	      0.05707631	      0.17246470
      1.05666670	      0.13295335	      0.05694528	      0.17141965
      1.06500000	      0.13235788	      0.05681761	      0.17036210
      1.07333330	      0.13179849	      0.05669742	      0.16932249
      1.08166670	      0.13128588	      0.05658705	      0.16829649
      1.09000000	      0.13083229	      0.05648922	      0.16731218
      1.09833330	      0.13043927	      0.05640430	      0.16636801
      1.10666670	      0.13012175	      0.05633561	      0.16548707
      1.11500000	      0.12989359	      0.05628620	      0.16465784
      1.12333330	      0.12974034	      0.05625299	      0.16392455
      1.13166670	      0.12967663	      0.05623917	      0.16327003
      1.14000000	      0.12972910	      0.05625055	      0.16272002
      1.14833330	      0.12988123	      0.05628352	      0.16227936
      1.15666670	      0.13011460	      0.05633407	      0.16194632
      1.16500000	      0.13046458	      0.05640978	      0.16172845
      1.17333330	      0.13090293	      0.05650446	      0.16163222
      1.18166670	      0.13143161	      0.05661845	      0.16164822
      1.19000000	      0.13205370	      0.05675229	      0.16178650
      1.19833330	      0.13275878	      0.05690359	      0.16203490
      1.20666670	      0.13352930	      0.05706849	      0.16238660
      1.21500000	      0.13436373	      0.05724652	      0.16282239
      1.22333330	      0.13524856	      0.05743470	      0.16335448
      1.23166670	      0.13617020	      0.05763006	      0.16395228
      1.24000000	      0.13711955	      0.05783061	      0.16461901
      1.24833330	      0.13806638	      0.05802993	      0.16528412
      1.25666670	      0.13901463	      0.05822887	      0.16599166
      1.26500000	      0.13994125	      0.05842261	      0.16670195
      1.27333330	      0.14083273	      0.05860840	      0.16740720
      1.28166670	      0.14169286	      0.05878710	      0.16809839
      1.29000000	      0.14250959	      0.05895629	      0.16871589
      1.29833330	      0.14327182	      0.05911374	      0.16927653
      1.30666670	      0.14398104	      0.05925987	      0.16976863
      1.31500000	      0.14462243	      0.05939172	      0.17015924
      1.32333330	      0.14519280	      0.05950872	      0.17045110
      1.33166670	      0.14568179	      0.05960884	      0.17063493
      1.34000000	      0.14609402	      0.05969312	      0.17072908
      1.34833330	      0.14643764	      0.05976328	      0.17072995
      1.35666670	      0.14670664	      0.05981815	      0.17062820
      1.36500000	      0.14691767	      0.05986115	      0.17045230
      1.37333330	      0.14705825	      0.05988979	      0.17019065
      1.38166670	      0.14712051	      0.05990246	      0.16984843
      1.39000000	      0.14711071	      0.05990047	      0.17033641
      1.39833330	      0.14702337	      0.05988268	      0.17086291
      1.40666670	      0.14686394	      0.05985021	      0.17136754
      1.41500000	      0.14663932	      0.05980442	      0.17184105
      1.42333330	      0.14634395	      0.05974416	      0.17233046
      1.43166670	      0.14599526	      0.05967294	      0.17277023
      1.44000000	      0.14559461	      0.05959101	      0.17320990
      1.44833330	      0.14515628	      0.05950124	      0.17362509
      1.45666670	      0.14468722	      0.05940502	      0.17402677
      1.46500000	      0.14418690	      0.05930222	      0.17440600
      1.47333330	      0.14367833	      0.05919755	      0.17477571
      1.48166670	      0.14315199	      0.05908902	      0.17510585
      1.49000000	      0.14262004	      0.05897913	      0.17542536
      1.49833330	      0.14207106	      0.05886551	      0.17570432
      1.50666670	      0.14151583	      0.05875037	      0.17595833
      1.51500000	      0.14094899	      0.05863259	      0.17618588
      1.52333330	      0.14037088	      0.05851222	      0.17637924
      1.53166670	      0.13977869	      0.05838867	      0.17654965
      1.54000000	      0.13916889	      0.05826116	      0.17667440
      1.54833330	      0.13854940	      0.05813135	      0.17676486
      1.55666670	      0.13790940	      0.05799693	      0.17682558
      1.56500000	      0.13724661	      0.05785740	      0.17683100
      1.57333330	      0.13657290	      0.05771522	      0.17681643
      1.58166670	      0.13588781	      0.05757028	      0.17676742
      1.59000000	      0.13520183	      0.05742478	      0.17668188
      1.59833330	      0.13452566	      0.05728101	      0.17658344
      1.60666670	      0.13387142	      0.05714155	      0.17645645
      1.61500000	      0.13323465	      0.05700549	      0.17630070
      1.62333330	      0.13262374	      0.05687465	      0.17611818
      1.63166670	      0.13201960	      0.05674496	      0.17588263
      1.64000000	      0.13144467	      0.05662126	      0.17561816
      1.64833330	      0.13088274	      0.05650011	      0.17529292
      1.65666670	      0.13033973	      0.05638278	      0.17493151
      1.66500000	      0.12980768	      0.05626758	      0.17450834
      1.67333330	      0.12928888	      0.05615503	      0.17403961
      1.68166670	      0.12877560	      0.05604345	      0.17351614
      1.69000000	      0.12826948	      0.05593321	      0.17293191
      1.69833330	      0.12776136	      0.05582231	      0.17233064
      1.70666670	      0.12724887	      0.05571024	      0.17164824
      1.71500000	      0.12673419	      0.05559746	      0.17093195
      1.72333330	      0.12620601	      0.05548149	      0.17017837
      1.73166670	      0.12566827	      0.05536316	      0.16936838
      1.74000000	      0.12512455	      0.05524326	      0.16853484
      1.74833330	      0.12456407	      0.05511940	      0.16767566
      1.75666670	      0.12400874	      0.05499639	      0.16677272
      1.76500000	      0.12344924	      0.05487219	      0.16581389
      1.77333330	      0.12289460	      0.05474878	      0.16488755
      1.78166670	      0.12234871	      0.05462705	      0.16390810
      1.79000000	      0.12182387	      0.05450976	      0.16290911
      1.79833330	      0.12131587	      0.05439599	      0.16191308
      1.80666670	      0.12083313	      0.05428766	      0.16087189
      1.81500000	      0.12038409	      0.05418669	      0.15984111
      1.82333330	      0.11996895	      0.05409318	      0.15878511
      1.83166670	      0.11959090	      0.05400788	      0.15833514
      1.84000000	      0.11925202	      0.05393131	      0.15871289
      1.84833330	      0.11895191	      0.05386340	      0.15914701
      1.85666670	      0.11869327	      0.05380481	      0.15958990
      1.86500000	      0.11847870	      0.05375616	      0.16009063
      1.87333330	      0.11830757	      0.05371732	      0.16063441
      1.88166670	      0.11816847	      0.05368573	      0.16122043
      1.89000000	      0.11807538	      0.05366458	      0.16182689
      1.89833330	      0.11802328	      0.05365274	      0.16245303
      1.90666670	      0.11800625	      0.05364887	      0.16310921
      1.91500000	      0.11802504	      0.05365314	      0.16378247
      1.92333330	      0.11808469	      0.05366670	      0.16445765
      1.93166670	      0.11817293	      0.05368675	      0.16511378
      1.94000000	      0.11829759	      0.05371505	      0.16578956
      1.94833330	      0.11845016	      0.05374968	      0.16645442
      1.95666670	      0.11863633	      0.05379190	      0.16711133
      1.96500000	      0.11885800	      0.05384214	      0.16778956
      1.97333330	      0.11908560	      0.05389366	      0.16838270
      1.98166670	      0.11935919	      0.05395554	      0.16901607
      1.99000000	      0.11964337	      0.05401973	      0.16957282
      1.99833330	      0.11995505	      0.05409004	      0.17012287
      2.00666670	      0.12029090	      0.05416571	      0.17066015
      2.01500000	      0.12065109	      0.05424675	      0.17115764
      2.02333330	      0.12103838	      0.05433374	      0.17164487
      2.03166670	      0.12144567	      0.05442508	      0.17210962
      2.04000000	      0.12187490	      0.05452118	      0.17255486
      2.04833330	      0.12233015	      0.05462291	      0.17298484
      2.05666670	      0.12280635	      0.05472912	      0.17340472
      2.06500000	      0.12330789	      0.05484077	      0.17381390
      2.07333330	      0.12383374	      0.05495757	      0.17420776
      2.08166670	      0.12438524	      0.05507982	      0.17460345
      2.09000000	      0.12496006	      0.05520694	      0.17499445
      2.09833330	      0.12556125	      0.05533958	      0.17539444
      2.10666670	      0.12618549	      0.05547698	      0.17579893
      2.11500000	      0.12682971	      0.05561841	      0.17622017
      2.12333330	      0.12749492	      0.05576408	      0.17664110
      2.13166670	      0.12817466	      0.05591253	      0.17708664
      2.14000000	      0.12886525	      0.05606295	      0.17753515
      2.14833330	      0.12956179	      0.05621427	      0.17800960
      2.15666670	      0.13025708	      0.05636490	      0.17849268
      2.16500000	      0.13094769	      0.05651412	      0.17899743
      2.17333330	      0.13162804	      0.05666075	      0.17950675
      2.18166670	      0.13229123	      0.05680330	      0.18002528
      2.19000000	      0.13293709	      0.05694180	      0.18054665
      2.19833330	      0.13355991	      0.05707503	      0.18107677
      2.20666670	      0.13415473	      0.05720198	      0.18160011
      2.21500000	      0.13470977	      0.05732019	      0.18209122
      2.22333330	      0.13523895	      0.05743266	      0.18259926
      2.23166670	      0.13573233	      0.05753733	      0.18307929
      2.24000000	      0.13616836	      0.05762968	      0.18352423
      2.24833330	      0.13656252	      0.05771302	      0.18395863
      2.25666670	      0.13688838	      0.05778184	      0.18433273
      2.26500000	      0.13718333	      0.05784406	      0.18468570
      2.27333330	      0.13741243	      0.05789234	      0.18500098
      2.28166670	      0.13758855	      0.05792942	      0.18526352
      2.29000000	      0.13771435	      0.05795590	      0.18550206
      2.29833330	      0.13779071	      0.05797197	      0.18568889
      2.30666670	      0.13783405	      0.05798108	      0.18582374
      2.31500000	      0.13784163	      0.05798268	      0.18592516
      2.32333330	      0.13781347	      0.05797676	      0.18599224
      2.33166670	      0.13776883	      0.05796737	      0.18598339
      2.34000000	      0.13772291	      0.05795770	      0.18595408
      2.34833330	      0.13764981	      0.05794232	      0.18590813
      2.35666670	      0.13758220	      0.05792809	      0.18579321
      2.36500000	      0.13750732	      0.05791232	      0.18566488
      2.37333330	      0.13743258	      0.05789658	      0.18549236
      2.38166670	      0.13736588	      0.05788253	      0.18529953
      2.39000000	      0.13730186	      0.05786904	      0.18508809
      2.39833330	      0.13724224	      0.05785647	      0.18484829
      2.40666670	      0.13717442	      0.05784218	      0.18460268
      2.41500000	      0.13711203	      0.05782902	      0.18434398
      2.42333330	      0.13704681	      0.05781527	      0.18406243
      2.43166670	      0.13696836	      0.05779872	      0.18377203
      2.44000000	      0.13689440	      0.05778311	      0.18350790
      2.44833330	      0.13681112	      0.05776553	      0.18321705
      2.45666670	      0.13672398	      0.05774713	      0.18290574
      2.46500000	      0.13663906	      0.05772920	      0.18263472
      2.47333330	      0.13654140	      0.05770856	      0.18236880
      2.48166670	      0.13644837	      0.05768890	      0.18209450
      2.49000000	      0.13636184	      0.05767060	      0.18183000
      2.49833330	      0.13627837	      0.05765295	      0.18155624
      2.50666670	      0.13621587	      0.05763973	      0.18129000
      2.51500000	      0.13613379	      0.05762236	      0.18102497
      2.52333330	      0.13608630	      0.05761231	      0.18076637
      2.53166670	      0.13604444	      0.05760345	      0.18053669
      2.54000000	      0.13599840	      0.05759370	      0.18029161
      2.54833330	      0.13598282	      0.05759040	      0.18004387
      2.55666670	      0.13595059	      0.05758357	      0.17979114
      2.56500000	      0.13592365	      0.05757787	      0.17955792
      2.57333330	      0.13590403	      0.05757371	      0.17931848
      2.58166670	      0.13589213	      0.05757119	      0.17908536
      2.59000000	      0.13591301	      0.05757561	      0.17884569
      2.59833330	      0.13595572	      0.05758466	      0.17865517
      2.60666670	      0.13602148	      0.05759859	      0.17846272
      2.61500000	      0.13610386	      0.05761603	      0.17827411
      2.62333330	      0.13623109	      0.05764295	      0.17811298
      2.63166670	      0.13640844	      0.05768046	      0.17799302
      2.64000000	      0.13661980	      0.05772513	      0.17787331
      2.64833330	      0.13688338	      0.05778078	      0.17779133
      2.65666670	      0.13718848	      0.05784514	      0.17775135
      2.66500000	      0.13754978	      0.05792126	      0.17778129
      2.67333330	      0.13796860	      0.05800938	      0.17781306
      2.68166670	      0.13841103	      0.05810231	      0.17790748
      2.69000000	      0.13890972	      0.05820689	      0.17803273
      2.69833330	      0.13944065	      0.05831802	      0.17821462
      2.70666670	      0.14001729	      0.05843848	      0.17842403
      2.71500000	      0.14061598	      0.05856328	      0.17866434
      2.72333330	      0.14123570	      0.05869219	      0.17893965
      2.73166670	      0.14187380	      0.05882463	      0.17925381
      2.74000000	      0.14252596	      0.05895967	      0.17957048
      2.74833330	      0.14316474	      0.05909165	      0.17990290
      2.75666670	      0.14380173	      0.05922296	      0.18023946
      2.76500000	      0.14442427	      0.05935102	      0.18057733
      2.77333330	      0.14501941	      0.05947318	      0.18089704
      2.78166670	      0.14558667	      0.05958938	      0.18120095
      2.79000000	      0.14612370	      0.05969918	      0.18147557
      2.79833330	      0.14661599	      0.05979966	      0.18173258
      2.80666670	      0.14706437	      0.05989103	      0.18193877
      2.81500000	      0.14746810	      0.05997319	      0.18210125
      2.82333330	      0.14782956	      0.06004664	      0.18220892
      2.83166670	      0.14814683	      0.06011104	      0.18226669
      2.84000000	      0.14840956	      0.06016432	      0.18224924
      2.84833330	      0.14862655	      0.06020829	      0.18215791
      2.85666670	      0.14878831	      0.06024104	      0.18198529
      2.86500000	      0.14889021	      0.06026167	      0.18172960
      2.87333330	      0.14893793	      0.06027132	      0.18141248
      2.88166670	      0.14894143	      0.06027203	      0.18100796
      2.89000000	      0.14890904	      0.06026548	      0.18055854
      2.89833330	      0.14884150	      0.06025181	      0.18004484
      2.90666670	      0.14874929	      0.06023314	      0.17947260
      2.91500000	      0.14863696	      0.06021039	      0.17885746
      2.92333330	      0.14849960	      0.06018257	      0.17819670
      2.93166670	      0.14833593	      0.06014939	      0.17749844
      2.94000000	      0.14815634	      0.06011297	      0.17680184
      2.94833330	      0.14794158	      0.06006939	      0.17607631
      2.95666670	      0.14769521	      0.06001935	      0.17534245
      2.96500000	      0.14742423	      0.05996426	      0.17461570
      2.97333330	      0.14711472	      0.05990129	      0.17389527
      2.98166670	      0.14678849	      0.05983483	      0.17318833
      2.99000000	      0.14642248	      0.05976019	      0.17251192
      2.99833330	      0.14604762	      0.05968364	      0.17186762
      3.00666670	      0.14565603	      0.05960358	      0.17124956
      3.01500000	      0.14525578	      0.05952163	      0.17067432
      3.02333330	      0.14485801	      0.05944007	      0.17017026
      3.03166670	      0.14447922	      0.05936231	      0.16970607
      3.04000000	      0.14409777	      0.05928389	      0.16925600
      3.04833330	      0.14373586	      0.05920940	      0.16888347
      3.05666670	      0.14338197	      0.05913646	      0.16853538
      3.06500000	      0.14304118	      0.05906614	      0.16825719
      3.07333330	      0.14270670	      0.05899704	      0.16801362
      3.08166670	      0.14237074	      0.05892756	      0.16779544
      3.09000000	      0.14202864	      0.05885672	      0.16760976
      3.09833330	      0.14167857	      0.05878414	      0.16747537
      3.10666670	      0.14130857	      0.05870733	      0.16733888
      3.11500000	      0.14091137	      0.05862476	      0.16722565
      3.12333330	      0.14049538	      0.05853816	      0.16712418
      3.13166670	      0.14003870	      0.05844295	      0.16700497
      3.14000000	      0.13955426	      0.05834177	      0.16689719
      3.14833330	      0.13903175	      0.05823245	      0.16677004
      3.15666670	      0.13847358	      0.05811544	      0.16662762
      3.16500000	      0.13789025	      0.05799290	      0.16647944
      3.17333330	      0.13727619	      0.05786363	      0.16629928
      3.18166670	      0.13663975	      0.05772934	      0.16608470
      3.19000000	      0.13599157	      0.05759225	      0.16585602
      3.19833330	      0.13533184	      0.05745238	      0.16559373
      3.20666670	      0.13466513	      0.05731069	      0.16530375
      3.21500000	      0.13399337	      0.05716757	      0.16498699
      3.22333330	      0.13331333	      0.05702232	      0.16466273
      3.23166670	      0.13262617	      0.05687517	      0.16432136
      3.24000000	      0.13194228	      0.05672834	      0.16395625
      3.24833330	      0.13125479	      0.05658035	      0.16357322
      3.25666670	      0.13057578	      0.05643381	      0.16320811
      3.26500000	      0.12989839	      0.05628724	      0.16282691
      3.27333330	      0.12922838	      0.05614189	      0.16243514
      3.28166670	      0.12856305	      0.05599718	      0.16204449
      3.29000000	      0.12790570	      0.05585384	      0.16165615
      3.29833330	      0.12725883	      0.05571242	      0.16128020
      3.30666670	      0.12661839	      0.05557206	      0.16089582
      3.31500000	      0.12598733	      0.05543340	      0.16053479
      3.32333330	      0.12536991	      0.05529740	      0.16018387
      3.33166670	      0.12476028	      0.05516279	      0.15985658
      3.34000000	      0.12416351	      0.05503070	      0.15953012
      3.34833330	      0.12358106	      0.05490148	      0.15923472
      3.35666670	      0.12301293	      0.05477513	      0.15898419
      3.36500000	      0.12246053	      0.05465201	      0.15876255
      3.37333330	      0.12193278	      0.05453412	      0.15857089
      3.38166670	      0.12142460	      0.05442036	      0.15843254
      3.39000000	      0.12094350	      0.05431244	      0.15832589
      3.39833330	      0.12049620	      0.05421192	      0.15830353
      3.40666670	      0.12008659	      0.05411969	      0.15833251
      3.41500000	      0.11971328	      0.05403551	      0.15839423
      3.42333330	      0.11938733	      0.05396189	      0.15852551
      3.43166670	      0.11911002	      0.05389919	      0.15872278
      3.44000000	      0.11887262	      0.05384545	      0.15898689
      3.44833330	      0.11869297	      0.05380475	      0.15928947
      3.45666670	      0.11856788	      0.05377638	      0.15966461
      3.46500000	      0.11849881	      0.05376072	      0.16007590
      3.47333330	      0.11847878	      0.05375618	      0.16055220
      3.48166670	      0.11852090	      0.05376573	      0.16104470
      3.49000000	      0.11861940	      0.05378807	      0.16160431
      3.49833330	      0.11877173	      0.05382259	      0.16220122
      3.50666670	      0.11897531	      0.05386870	      0.16279837
      3.51500000	      0.11922558	      0.05392533	      0.16341759
      3.52333330	      0.11953480	      0.05399521	      0.16406005
      3.53166670	      0.11989476	      0.05407645	      0.16471036
      3.54000000	      0.12028493	      0.05416437	      0.16536456
      3.54833330	      0.12072403	      0.05426314	      0.16601066
      3.55666670	      0.12121419	      0.05437319	      0.16666766
      3.56500000	      0.12172319	      0.05448723	      0.16724853
      3.57333330	      0.12227426	      0.05461043	      0.16785269
      3.58166670	      0.12285079	      0.05473902	      0.16843081
      3.59000000	      0.12345482	      0.05487343	      0.16900331
      3.59833330	      0.12408675	      0.05501369	      0.16957581
      3.60666670	      0.12474465	      0.05515934	      0.17008546
      3.61500000	      0.12541068	      0.05530639	      0.17061089
      3.62333330	      0.12609946	      0.05545806	      0.17108658
      3.63166670	      0.12680727	      0.05561349	      0.17158982
      3.64000000	      0.12752930	      0.05577159	      0.17204304
      3.64833330	      0.12826385	      0.05593198	      0.17253857
      3.65666670	      0.12901346	      0.05609519	      0.17301039
      3.66500000	      0.12977146	      0.05625973	      0.17352176
      3.67333330	      0.13053739	      0.05642552	      0.17399568
      3.68166670	      0.13131616	      0.05659358	      0.17451050
      3.69000000	      0.13212112	      0.05676677	      0.17503948
      3.69833330	      0.13290664	      0.05693527	      0.17557006
      3.70666670	      0.13373011	      0.05711138	      0.17614510
      3.71500000	      0.13454801	      0.05728576	      0.17672720
      3.72333330	      0.13537440	      0.05746142	      0.17733183
      3.73166670	      0.13620860	      0.05763819	      0.17795650
      3.74000000	      0.13704774	      0.05781546	      0.17860487
      3.74833330	      0.13788959	      0.05799276	      0.17926040
      3.75666670	      0.13873356	      0.05816997	      0.17993010
      3.76500000	      0.13957246	      0.05834558	      0.18062434
      3.77333330	      0.14040210	      0.05851873	      0.18131613
      3.78166670	      0.14121911	      0.05868874	      0.18201135
      3.79000000	      0.14201275	      0.05885342	      0.18270119
      3.79833330	      0.14278414	      0.05901305	      0.18337615
      3.80666670	      0.14352682	      0.05916633	      0.18405464
      3.81500000	      0.14423528	      0.05931217	      0.18471171
      3.82333330	      0.14490767	      0.05945026	      0.18531551
      3.83166670	      0.14554043	      0.05957992	      0.18590615
      3.84000000	      0.14611644	      0.05969770	      0.18644337
      3.84833330	      0.14667317	      0.05981132	      0.18695527
      3.85666670	      0.14715470	      0.05990942	      0.18739817
      3.86500000	      0.14759119	      0.05999821	      0.18780644
      3.87333330	      0.14796626	      0.06007440	      0.18818594
      3.88166670	      0.14827322	      0.06013668	      0.18849702
      3.89000000	      0.14850432	      0.06018352	      0.18874452
      3.89833330	      0.14865724	      0.06021450	      0.18895099
      3.90666670	      0.14873471	      0.06023019	      0.18907513
      3.91500000	      0.14874797	      0.06023287	      0.18916400
      3.92333330	      0.14867714	      0.06021853	      0.18922726
      3.93166670	      0.14855217	      0.06019322	      0.18925185
      3.94000000	      0.14836396	      0.06015508	      0.18921370
      3.94833330	      0.14814010	      0.06010968	      0.18913247
      3.95666670	      0.14787211	      0.06005528	      0.18904130
      3.96500000	      0.14758586	      0.05999713	      0.18889188
      3.97333330	      0.14728239	      0.05993541	      0.18873093
      3.98166670	      0.14698786	      0.05987545	      0.18858539
      3.99000000	      0.14667826	      0.05981236	      0.18837741
      3.99833330	      0.14639200	      0.05975397	      0.18815658
      4.00666670	      0.14613110	      0.05970070	      0.18794276
      4.01500000	      0.14589150	      0.05965173	      0.18772019
      4.02333330	      0.14567204	      0.05960685	      0.18746507
      4.03166670	      0.14548346	      0.05956826	      0.18724966
      4.04000000	      0.14532182	      0.05953516	      0.18701994
      4.04833330	      0.14518598	      0.05950732	      0.18677173
      4.05666670	      0.14507857	      0.05948531	      0.18652473
      4.06500000	      0.14499366	      0.05946790	      0.18627176
      4.07333330	      0.14492416	      0.05945364	      0.18601187
      4.08166670	      0.14487329	      0.05944321	      0.18574256
      4.09000000	      0.14483703	      0.05943577	      0.18547879
      4.09833330	      0.14481185	      0.05943060	      0.18520598
      4.10666670	      0.14479462	      0.05942707	      0.18491777
      4.11500000	      0.14478407	      0.05942490	      0.18462124
      4.12333330	      0.14478693	      0.05942549	      0.18430882
      4.13166670	      0.14478666	      0.05942543	      0.18400759
      4.14000000	      0.14479419	      0.05942698	      0.18368613
      4.14833330	      0.14480353	      0.05942889	      0.18335036
      4.15666670	      0.14483634	      0.05943563	      0.18302096
      4.16500000	      0.14485309	      0.05943906	      0.18267860
      4.17333330	      0.14488945	      0.05944652	      0.18233513
      4.18166670	      0.14493716	      0.05945631	      0.18200491
      4.19000000	      0.14499400	      0.05946797	      0.18167404
      4.19833330	      0.14507569	      0.05948472	      0.18135447
      4.20666670	      0.14518428	      0.05950697	      0.18105640
      4.21500000	      0.14532353	      0.05953550	      0.18078650
      4.22333330	      0.14549729	      0.05957109	      0.18055334
      4.23166670	      0.14570182	      0.05961294	      0.18032745
      4.24000000	      0.14595199	      0.05966410	      0.18015876
      4.24833330	      0.14626410	      0.05972786	      0.18002247
      4.25666670	      0.14661444	      0.05979935	      0.17991498
      4.26500000	      0.14703457	      0.05988496	      0.17987287
      4.27333330	      0.14749705	      0.05997907	      0.17990647
      4.28166670	      0.14802953	      0.06008724	      0.17996731
      4.29000000	      0.14860996	      0.06020493	      0.18009367
      4.29833330	      0.14923480	      0.06033136	      0.18025601
      4.30666670	      0.14993497	      0.06047273	      0.18047946
      4.31500000	      0.15065843	      0.06061844	      0.18073309
      4.32333330	      0.15142563	      0.06077259	      0.18102391
      4.33166670	      0.15221843	      0.06093148	      0.18137380
      4.34000000	      0.15302890	      0.06109347	      0.18173047
      4.34833330	      0.15385252	      0.06125766	      0.18211111
      4.35666670	      0.15467293	      0.06142077	      0.18247899
      4.36500000	      0.15547807	      0.06158042	      0.18286061
      4.37333330	      0.15626191	      0.06173545	      0.18324309
      4.38166670	      0.15700921	      0.06188290	      0.18360195
      4.39000000	      0.15771031	      0.06202091	      0.18393517
      4.39833330	      0.15835351	      0.06214725	      0.18423928
      4.40666670	      0.15893883	      0.06226200	      0.18449687
      4.41500000	      0.15944316	      0.06236071	      0.18470397
      4.42333330	      0.15988726	      0.06244749	      0.18486777
      4.43166670	      0.16023447	      0.06251526	      0.18496356
      4.44000000	      0.16050644	      0.06256829	      0.18499805
      4.44833330	      0.16070434	      0.06260685	      0.18496397
      4.45666670	      0.16082835	      0.06263100	      0.18486018
      4.46500000	      0.16088251	      0.06264155	      0.18469124
      4.47333330	      0.16087457	      0.06264000	      0.18442219
      4.48166670	      0.16079659	      0.06262482	      0.18406769
      4.49000000	      0.16065213	      0.06259668	      0.18362748
      4.49833330	      0.16043732	      0.06255482	      0.18310776
      4.50666670	      0.16016845	      0.06250238	      0.18252868
      4.51500000	      0.15985527	      0.06244124	      0.18188973
      4.52333330	      0.15949692	      0.06237122	      0.18120140
      4.53166670	      0.15912040	      0.06229756	      0.18048804
      4.54000000	      0.15872206	      0.06221953	      0.17974229
      4.54833330	      0.15830536	      0.06213780	      0.17897629
      4.55666670	      0.15787201	      0.06205269	      0.17820209
      4.56500000	      0.15742024	      0.06196385	      0.17810055
      4.57333330	      0.15696499	      0.06187418	      0.17830851
      4.58166670	      0.15649185	      0.06178086	      0.17851110
      4.59000000	      0.15601537	      0.06168673	      0.17871851
      4.59833330	      0.15553322	      0.06159134	      0.17892034
      4.60666670	      0.15506112	      0.06149779	      0.17914411
      4.61500000	      0.15459313	      0.06140492	      0.17934873
      4.62333330	      0.15411595	      0.06131008	      0.17951255
      4.63166670	      0.15366793	      0.06122090	      0.17970218
      4.64000000	      0.15323076	      0.06113375	      0.17987168
      4.64833330	      0.15281148	      0.06105006	      0.18005259
      4.65666670	      0.15241123	      0.06097005	      0.18022526
      4.66500000	      0.15202262	      0.06089227	      0.18035723
      4.67333330	      0.15164743	      0.06081708	      0.18050776
      4.68166670	      0.15128135	      0.06074363	      0.18063646
      4.69000000	      0.15091945	      0.06067093	      0.18076627
      4.69833330	      0.15055822	      0.06059828	      0.18086084
      4.70666670	      0.15020487	      0.06052713	      0.18097394
      4.71500000	      0.14982748	      0.06045105	      0.18104030
      4.72333330	      0.14945374	      0.06037560	      0.18112640
      4.73166670	      0.14906643	      0.06029732	      0.18119901
      4.74000000	      0.14866142	      0.06021535	      0.18125944
      4.74833330	      0.14823710	      0.06012935	      0.18130686
      4.75666670	      0.14779658	      0.06003994	      0.18135055
      4.76500000	      0.14732715	      0.05994452	      0.18138528
      4.77333330	      0.14683994	      0.05984532	      0.18141205
      4.78166670	      0.14632376	      0.05974004	      0.18143138
      4.79000000	      0.14577914	      0.05962876	      0.18144122
      4.79833330	      0.14520271	      0.05951075	      0.18144462
      4.80666670	      0.14459586	      0.05938626	      0.18143373
      4.81500000	      0.14396641	      0.05925686	      0.18142547
      4.82333330	      0.14332020	      0.05912372	      0.18140228
      4.83166670	      0.14267058	      0.05898958	      0.18139494
      4.84000000	      0.14201719	      0.05885435	      0.18137532
      4.84833330	      0.14136359	      0.05871876	      0.18136807
      4.85666670	      0.14071364	      0.05858362	      0.18132475
      4.86500000	      0.14005303	      0.05844594	      0.18127472
      4.87333330	      0.13939530	      0.05830854	      0.18119893
      4.88166670	      0.13873308	      0.05816987	      0.18106323
      4.89000000	      0.13807628	      0.05803201	      0.18093638
      4.89833330	      0.13742472	      0.05789493	      0.18075857
      4.90666670	      0.13676943	      0.05775673	      0.18052135
      4.91500000	      0.13611778	      0.05761897	      0.18023697
      4.92333330	      0.13546619	      0.05748090	      0.17992179
      4.93166670	      0.13481456	      0.05734248	      0.17954409
      4.94000000	      0.13416070	      0.05720325	      0.17911039
      4.94833330	      0.13351400	      0.05706522	      0.17862409
      4.95666670	      0.13286936	      0.05692729	      0.17807819
      4.96500000	      0.13222767	      0.05678966	      0.17750686
      4.97333330	      0.13158965	      0.05665248	      0.17684209
      4.98166670	      0.13096165	      0.05651714	      0.17613185
      4.99000000	      0.13034640	      0.05638422	      0.17536624
      4.99833330	      0.12974679	      0.05625439	      0.17454289
      5.00666670	      0.12916576	      0.05612829	      0.17369288
      5.01500000	      0.12860785	      0.05600693	      0.17276840
      5.02333330	      0.12805440	      0.05588630	      0.17181184
      5.03166670	      0.12754810	      0.05577570	      0.17084485
      5.04000000	      0.12708202	      0.05567371	      0.16983327
      5.04833330	      0.12667827	      0.05558520	      0.16879860
      5.05666670	      0.12630161	      0.05550250	      0.16775499
      5.06500000	      0.12596604	      0.05542871	      0.16672941
      5.07333330	      0.12568432	      0.05536670	      0.16565373
      5.08166670	      0.12543971	      0.05531279	      0.16459409
      5.09000000	      0.12525596	      0.05527227	      0.16365654
      5.09833330	      0.12511805	      0.05524183	      0.16436773
      5.10666670	      0.12503297	      0.05522304	      0.16510405
      5.11500000	      0.12499220	      0.05521404	      0.16587104
      5.12333330	      0.12499957	      0.05521567	      0.16667361
      5.13166670	      0.12505191	      0.05522723	      0.16745903
      5.14000000	      0.12514343	      0.05524743	      0.16825631
      5.14833330	      0.12527817	      0.05527717	      0.16909952
      5.15666670	      0.12545223	      0.05531555	      0.16991378
      5.16500000	      0.12565173	      0.05535952	      0.17069857
      5.17333330	      0.12587379	      0.05540841	      0.17151203
      5.18166670	      0.12612351	      0.05546335	      0.17226854
      5.19000000	      0.12637507	      0.05551863	      0.17298899
      5.19833330	      0.12663851	      0.05557647	      0.17371266
      5.20666670	      0.12691504	      0.05563712	      0.17437466
      5.21500000	      0.12719330	      0.05569808	      0.17497818
      5.22333330	      0.12747810	      0.05576040	      0.17556999
      5.23166670	      0.12774878	      0.05581957	      0.17611842
      5.24000000	      0.12804080	      0.05588333	      0.17660537
      5.24833330	      0.12831971	      0.05594416	      0.17703099
      5.25666670	      0.12859638	      0.05600444	      0.17744471
      5.26500000	      0.12887577	      0.05606524	      0.17780258
      5.27333330	      0.12915489	      0.05612592	      0.17813108
      5.28166670	      0.12943493	      0.05618674	      0.17840107
      5.29000000	      0.12972414	      0.05624947	      0.17864203
      5.29833330	      0.13000915	      0.05631123	      0.17884961
      5.30666670	      0.13030690	      0.05637568	      0.17903699
      5.31500000	      0.13059386	      0.05643772	      0.17918345
      5.32333330	      0.13090703	      0.05650535	      0.17933385
      5.33166670	      0.13121600	      0.05657199	      0.17945720
      5.34000000	      0.13153048	      0.05663974	      0.17958499
      5.34833330	      0.13186304	      0.05671130	      0.17968406
      5.35666670	      0.13220404	      0.05678458	      0.17977437
      5.36500000	      0.13256075	      0.05686114	      0.17986437
      5.37333330	      0.13292802	      0.05693985	      0.17995105
      5.38166670	      0.13329822	      0.05701909	      0.18001700
      5.39000000	      0.13371517	      0.05710819	      0.18014288
      5.39833330	      0.13412075	      0.05719474	      0.18023325
      5.40666670	      0.13453102	      0.05728215	      0.18034038
      5.41500000	      0.13494769	      0.05737079	      0.18044106
      5.42333330	      0.13535883	      0.05745811	      0.18057001
      5.43166670	      0.13575687	      0.05754253	      0.18070128
      5.44000000	      0.13614225	      0.05762415	      0.18083736
      5.44833330	      0.13650619	      0.05770112	      0.18096573
      5.45666670	      0.13684984	      0.05777371	      0.18110791
      5.46500000	      0.13717558	      0.05784242	      0.18125267
      5.47333330	      0.13747916	      0.05790639	      0.18140586
      5.48166670	      0.13775632	      0.05796473	      0.18154323
      5.49000000	      0.13801455	      0.05801904	      0.18171465
      5.49833330	      0.13826279	      0.05807119	      0.18182653
      5.50666670	      0.13848295	      0.05811741	      0.18198816
      5.51500000	      0.13870645	      0.05816429	      0.18211632
      5.52333330	      0.13891563	      0.05820813	      0.18223667
      5.53166670	      0.13911315	      0.05824950	      0.18236583
      5.54000000	      0.13930292	      0.05828921	      0.18247919
      5.54833330	      0.13948898	      0.05832812	      0.18258113
      5.55666670	      0.13966781	      0.05836550	      0.18267904
      5.56500000	      0.13984232	      0.05840195	      0.18276522
      5.57333330	      0.14001975	      0.05843899	      0.18285446
      5.58166670	      0.14019920	      0.05847643	      0.18294035
      5.59000000	      0.14037802	      0.05851371	      0.18301874
      5.59833330	      0.14055197	      0.05854995	      0.18309803
      5.60666670	      0.14072006	      0.05858495	      0.18316885
      5.61500000	      0.14088342	      0.05861895	      0.18325229
      5.62333330	      0.14103489	      0.05865045	      0.18332390
      5.63166670	      0.14117432	      0.05867944	      0.18340117
      5.64000000	      0.14129817	      0.05870517	      0.18347179
      5.64833330	      0.14141461	      0.05872935	      0.18354444
      5.65666670	      0.14150408	      0.05874793	      0.18361031
      5.66500000	      0.14158304	      0.05876432	      0.18368308
      5.67333330	      0.14164667	      0.05877752	      0.18374034
      5.68166670	      0.14169956	      0.05878849	      0.18377178
      5.69000000	      0.14174927	      0.05879880	      0.18380875
      5.69833330	      0.14179199	      0.05880766	      0.18381253
      5.70666670	      0.14182917	      0.05881537	      0.18379625
      5.71500000	      0.14186404	      0.05882260	      0.18375498
      5.72333330	      0.14190161	      0.05883039	      0.18368199
      5.73166670	      0.14193021	      0.05883632	      0.18357901
      5.74000000	      0.14197081	      0.05884473	      0.18342769
      5.74833330	      0.14200256	      0.05885131	      0.18324268
      5.75666670	      0.14201282	      0.05885344	      0.18301769
      5.76500000	      0.14201398	      0.05885368	      0.18274532
      5.77333330	      0.14199724	      0.05885021	      0.18243254
      5.78166670	      0.14196261	      0.05884303	      0.18205591
      5.79000000	      0.14191204	      0.05883255	      0.18169416
      5.79833330	      0.14183819	      0.05881724	      0.18126645
      5.80666670	      0.14175593	      0.05880019	      0.18083305
      5.81500000	      0.14168016	      0.05878447	      0.18034271
      5.82333330	      0.14160586	      0.05876905	      0.17984917
      5.83166670	      0.14155709	      0.05875893	      0.17936267
      5.84000000	      0.14155693	      0.05875890	      0.17886528
      5.84833330	      0.14160387	      0.05876864	      0.17840725
      5.85666670	      0.14171307	      0.05879129	      0.17796062
      5.86500000	      0.14189114	      0.05882822	      0.17754821
      5.87333330	      0.14214462	      0.05888074	      0.17716940
      5.88166670	      0.14247200	      0.05894851	      0.17684093
      5.89000000	      0.14287325	      0.05903146	      0.17656808
      5.89833330	      0.14334065	      0.05912794	      0.17634283
      5.90666670	      0.14386497	      0.05923598	      0.17616843
      5.91500000	      0.14444407	      0.05935508	      0.17605891
      5.92333330	      0.14504757	      0.05947895	      0.17601961
      5.93166670	      0.14568988	      0.05961050	      0.17601809
      5.94000000	      0.14634321	      0.05974401	      0.17607478
      5.94833330	      0.14700125	      0.05987818	      0.17615475
      5.95666670	      0.14764405	      0.06000895	      0.17627523
      5.96500000	      0.14826990	      0.06013600	      0.17641345
      5.97333330	      0.14886633	      0.06025683	      0.17657336
      5.98166670	      0.14942266	      0.06036932	      0.17673679
      5.99000000	      0.14993392	      0.06047251	      0.17689634
      5.99833330	      0.15039470	      0.06056536	      0.17705360
      6.00666670	      0.15079099	      0.06064511	      0.17718724
      6.01500000	      0.15112223	      0.06071168	      0.17726613
      6.02333330	      0.15137964	      0.06076336	      0.17733815
      6.03166670	      0.15155157	      0.06079786	      0.17732899
      6.04000000	      0.15163559	      0.06081471	      0.17729305
      6.04833330	      0.15164018	      0.06081563	      0.17721900
      6.05666670	      0.15156855	      0.06080127	      0.17709163
      6.06500000	      0.15143093	      0.06077366	      0.17693964
      6.07333330	      0.15124539	      0.06073641	      0.17674864
      6.08166670	      0.15100168	      0.06068746	      0.17652640
      6.09000000	      0.15072095	      0.06063102	      0.17627598
      6.09833330	      0.15039311	      0.06056505	      0.17600928
      6.10666670	      0.15002080	      0.06049003	      0.17571581
      6.11500000	      0.14960409	      0.06040596	      0.17540897
      6.12333330	      0.14914385	      0.06031297	      0.17509493
      6.13166670	      0.14865111	      0.06021326	      0.17477363
      6.14000000	      0.14811498	      0.06010458	      0.17444044
      6.14833330	      0.14756028	      0.05999193	      0.17410288
      6.15666670	      0.14695912	      0.05986960	      0.17377511
      6.16500000	      0.14633174	      0.05974167	      0.17343928
      6.17333330	      0.14569322	      0.05961118	      0.17309714
      6.18166670	      0.14503513	      0.05947640	      0.17279408
      6.19000000	      0.14438055	      0.05934203	      0.17244585
      6.19833330	      0.14371438	      0.05920497	      0.17214451
      6.20666670	      0.14304748	      0.05906744	      0.17184457
      6.21500000	      0.14239500	      0.05893258	      0.17152129
      6.22333330	      0.14173387	      0.05879561	      0.17121285
      6.23166670	      0.14108121	      0.05866008	      0.17093664
      6.24000000	      0.14042525	      0.05852355	      0.17065356
      6.24833330	      0.13976138	      0.05838505	      0.17039496
      6.25666670	      0.13911643	      0.05825018	      0.17012386
      6.26500000	      0.13845860	      0.05811230	      0.16987873
      6.27333330	      0.13780007	      0.05797394	      0.16964739
      6.28166670	      0.13714504	      0.05783598	      0.16941796
      6.29000000	      0.13648437	      0.05769651	      0.16921420
      6.29833330	      0.13582475	      0.05755692	      0.16901852
      6.30666670	      0.13516113	      0.05741614	      0.16884005
      6.31500000	      0.13450349	      0.05727629	      0.16867491
      6.32333330	      0.13383748	      0.05713431	      0.16852030
      6.33166670	      0.13317488	      0.05699270	      0.16837305
      6.34000000	      0.13251662	      0.05685167	      0.16824206
      6.34833330	      0.13186292	      0.05671128	      0.16812534
      6.35666670	      0.13123684	      0.05657648	      0.16800921
      6.36500000	      0.13064288	      0.05644831	      0.16789402
      6.37333330	      0.13008862	      0.05632844	      0.16779339
      6.38166670	      0.12957724	      0.05621762	      0.16768944
      6.39000000	      0.12909590	      0.05611311	      0.16760067
      6.39833330	      0.12865302	      0.05601677	      0.16753201
      6.40666670	      0.12825045	      0.05592906	      0.16747366
      6.41500000	      0.12788967	      0.05585034	      0.16743611
      6.42333330	      0.12755759	      0.05577778	      0.16742215
      6.43166670	      0.12726142	      0.05571299	      0.16742210
      6.44000000	      0.12698639	      0.05565275	      0.16745610
      6.44833330	      0.12673537	      0.05559772	      0.16750573
      6.45666670	      0.12650041	      0.05554616	      0.16759344
      6.46500000	      0.12626631	      0.05549474	      0.16769527
      6.47333330	      0.12604873	      0.05544691	      0.16785128
      6.48166670	      0.12583412	      0.05539968	      0.16800250
      6.49000000	      0.12562620	      0.05535390	      0.16819393
      6.49833330	      0.12543186	      0.05531106	      0.16843090
      6.50666670	      0.12524130	      0.05526903	      0.16866622
      6.51500000	      0.12507517	      0.05523236	      0.16897192
      6.52333330	      0.12493659	      0.05520176	      0.16930474
      6.53166670	      0.12482808	      0.05517778	      0.16966525
      6.54000000	      0.12474566	      0.05515956	      0.17005792
      6.54833330	      0.12470351	      0.05515024	      0.17048803
      6.55666670	      0.12470758	      0.05515114	      0.17094806
      6.56500000	      0.12474704	      0.05515986	      0.17145236
      6.57333330	      0.12484070	      0.05518057	      0.17196742
      6.58166670	      0.12497284	      0.05520976	      0.17251455
      6.59000000	      0.12515307	      0.05524956	      0.17310788
      6.59833330	      0.12538040	      0.05529972	      0.17369802
      6.60666670	      0.12565731	      0.05536075	      0.17433460
      6.61500000	      0.12596318	      0.05542809	      0.17499095
      6.62333330	      0.12631443	      0.05550531	      0.17565310
      6.63166670	      0.12671945	      0.05559423	      0.17631452
      6.64000000	      0.12714147	      0.05568673	      0.17703330
      6.64833330	      0.12760677	      0.05578853	      0.17772580
      6.65666670	      0.12809882	      0.05589599	      0.17839104
      6.66500000	      0.12863440	      0.05601272	      0.17908644
      6.67333330	      0.12918353	      0.05613215	      0.17978186
      6.68166670	      0.12977428	      0.05626034	      0.18045373
      6.69000000	      0.13038557	      0.05639269	      0.18106987
      6.69833330	      0.13100337	      0.05652614	      0.18171907
      6.70666670	      0.13165979	      0.05666758	      0.18232965
      6.71500000	      0.13230839	      0.05680699	      0.18291957
      6.72333330	      0.13297914	      0.05695080	      0.18346195
      6.73166670	      0.13365237	      0.05709478	      0.18399364
      6.74000000	      0.13432212	      0.05723766	      0.18447996
      6.74833330	      0.13499832	      0.05738155	      0.18496204
      6.75666670	      0.13565636	      0.05752123	      0.18538712
      6.76500000	      0.13631315	      0.05766031	      0.18576535
      6.77333330	      0.13694872	      0.05779457	      0.18613455
      6.78166670	      0.13757398	      0.05792636	      0.18647938
      6.79000000	      0.13817141	      0.05805200	      0.18678455
      6.79833330	      0.13872206	      0.05816756	      0.18707503
      6.80666670	      0.13928186	      0.05828481	      0.18730543
      6.81500000	      0.13979372	      0.05839181	      0.18753787
      6.82333330	      0.14028058	      0.05849340	      0.18774310
      6.83166670	      0.14073727	      0.05858853	      0.18792007
      6.84000000	      0.14110062	      0.05866412	      0.18813385
      6.84833330	      0.14150682	      0.05874850	      0.18829571
      6.85666670	      0.14189546	      0.05882912	      0.18846450
      6.86500000	      0.14226842	      0.05890638	      0.18862090
      6.87333330	      0.14263223	      0.05898165	      0.18877798
      6.88166670	      0.14298385	      0.05905431	      0.18893915
      6.89000000	      0.14332971	      0.05912569	      0.18910807
      6.89833330	      0.14366396	      0.05919459	      0.18925572
      6.90666670	      0.14399081	      0.05926188	      0.18944727
      6.91500000	      0.14430848	      0.05932722	      0.18963852
      6.92333330	      0.14461030	      0.05938923	      0.18984549
      6.93166670	      0.14489999	      0.05944868	      0.19003135
      6.94000000	      0.14517048	      0.05950415	      0.19024200
      6.94833330	      0.14541958	      0.05955518	      0.19045370
      6.95666670	      0.14564628	      0.05960158	      0.19066637
      6.96500000	      0.14585159	      0.05964357	      0.19087314
      6.97333330	      0.14603310	      0.05968067	      0.19106654
      6.98166670	      0.14619245	      0.05971323	      0.19126881
      6.99000000	      0.14633670	      0.05974268	      0.19146110
      6.99833330	      0.14644347	      0.05976447	      0.19163827
      7.00666670	      0.14653399	      0.05978294	      0.19179234
      7.01500000	      0.14659407	      0.05979519	      0.19194478
      7.02333330	      0.14664018	      0.05980460	      0.19208103
      7.03166670	      0.14666767	      0.05981020	      0.19221230
      7.04000000	      0.14667382	      0.05981146	      0.19230723
      7.04833330	      0.14666438	      0.05980953	      0.19240063
      7.05666670	      0.14664729	      0.05980605	      0.19247125
      7.06500000	      0.14663171	      0.05980287	      0.19254590
      7.07333330	      0.14661407	      0.05979927	      0.19260974
      7.08166670	      0.14659978	      0.05979636	      0.19264435
      7.09000000	      0.14658903	      0.05979417	      0.19268220
      7.09833330	      0.14658959	      0.05979428	      0.19270420
      7.10666670	      0.14659655	      0.05979570	      0.19272286
      7.11500000	      0.14662100	      0.05980069	      0.19272872
      7.12333330	      0.14665684	      0.05980799	      0.19272540
      7.13166670	      0.14671942	      0.05982075	      0.19272422
      7.14000000	      0.14678991	      0.05983512	      0.19271453
      7.14833330	      0.14686372	      0.05985016	      0.19267668
      7.15666670	      0.14696131	      0.05987004	      0.19265030
      7.16500000	      0.14709807	      0.05989789	      0.19261326
      7.17333330	      0.14724318	      0.05992743	      0.19256930
      7.18166670	      0.14739828	      0.05995899	      0.19251034
      7.19000000	      0.14760116	      0.06000024	      0.19242790
      7.19833330	      0.14782040	      0.06004478	      0.19235871
      7.20666670	      0.14806876	      0.06009520	      0.19224939
      7.21500000	      0.14835225	      0.06015270	      0.19214615
      7.22333330	      0.14867042	      0.06021717	      0.19203788
      7.23166670	      0.14902061	      0.06028805	      0.19190152
      7.24000000	      0.14941600	      0.06036798	      0.19176523
      7.24833330	      0.14987571	      0.06046077	      0.19161480
      7.25666670	      0.15035656	      0.06055769	      0.19144378
      7.26500000	      0.15092828	      0.06067271	      0.19126851
      7.27333330	      0.15155452	      0.06079845	      0.19109885
